{
  "type": "FeatureCollection",
  "features": [
    {
      "type": "Feature",
      "properties": {
        "norad_id": 58647,
        "name": "TIANMU-1 13",
        "group": "weather",
        "lat": 17.992067625108696,
        "lon": -173.0631674664051,
        "alt_km": 494.5250895485351,
        "timestamp": "2025-12-10T20:49:52.204846+00:00",
        "meta_object_name": "TIANMU-1 13",
        "meta_object_id": "2023-205C",
        "meta_epoch": "2025-12-10T13:49:19.644384",
        "meta_mean_motion": 15.24480986,
        "meta_eccentricity": 0.00060347,
        "meta_inclination": 97.3626,
        "meta_ra_of_asc_node": 4.2431,
        "meta_arg_of_pericenter": 277.2375,
        "meta_mean_anomaly": 82.8177,
        "meta_ephemeris_type": 0,
        "meta_classification_type": "U",
        "meta_norad_cat_id": 58647,
        "meta_element_set_no": 999,
        "meta_rev_at_epoch": 10874,
        "meta_bstar": 0.0003852948,
        "meta_mean_motion_dot": 9.404e-05,
        "meta_mean_motion_ddot": 0,
        "tle_line1": "1 58647U 23205C   25344.57592181  .00009404  00000+0  38529-3 0  9994",
        "tle_line2": "2 58647  97.3626   4.2431 0006034 277.2375  82.8177 15.24480986108745"
      },
      "geometry": {
        "type": "Point",
        "coordinates": [
          -173.0631674664051,
          17.992067625108696
        ]
      }
    },
    {
      "type": "Feature",
      "properties": {
        "norad_id": 58648,
        "name": "TIANMU-1 14",
        "group": "weather",
        "lat": -71.47841196839647,
        "lon": 161.1992438794348,
        "alt_km": 495.53208452614035,
        "timestamp": "2025-12-10T20:49:52.204861+00:00",
        "meta_object_name": "TIANMU-1 14",
        "meta_object_id": "2023-205D",
        "meta_epoch": "2025-12-10T14:59:54.489408",
        "meta_mean_motion": 15.24465152,
        "meta_eccentricity": 0.00068837,
        "meta_inclination": 97.3558,
        "meta_ra_of_asc_node": 3.642,
        "meta_arg_of_pericenter": 282.1318,
        "meta_mean_anomaly": 77.9149,
        "meta_ephemeris_type": 0,
        "meta_classification_type": "U",
        "meta_norad_cat_id": 58648,
        "meta_element_set_no": 999,
        "meta_rev_at_epoch": 10875,
        "meta_bstar": 0.00038973323,
        "meta_mean_motion_dot": 9.51e-05,
        "meta_mean_motion_ddot": 0,
        "tle_line1": "1 58648U 23205D   25344.62493622  .00009510  00000+0  38973-3 0  9992",
        "tle_line2": "2 58648  97.3558   3.6420 0006883 282.1318  77.9149 15.24465152108758"
      },
      "geometry": {
        "type": "Point",
        "coordinates": [
          161.1992438794348,
          -71.47841196839647
        ]
      }
    },
    {
      "type": "Feature",
      "properties": {
        "norad_id": 58660,
        "name": "TIANMU-1 19",
        "group": "weather",
        "lat": 53.87110940782673,
        "lon": -73.78074887703985,
        "alt_km": 479.38821257773543,
        "timestamp": "2025-12-10T20:49:52.204877+00:00",
        "meta_object_name": "TIANMU-1 19",
        "meta_object_id": "2023-208A",
        "meta_epoch": "2025-12-10T13:59:46.434048",
        "meta_mean_motion": 15.27785326,
        "meta_eccentricity": 0.000404,
        "meta_inclination": 97.4387,
        "meta_ra_of_asc_node": 95.6245,
        "meta_arg_of_pericenter": 262.8832,
        "meta_mean_anomaly": 97.1948,
        "meta_ephemeris_type": 0,
        "meta_classification_type": "U",
        "meta_norad_cat_id": 58660,
        "meta_element_set_no": 999,
        "meta_rev_at_epoch": 10849,
        "meta_bstar": 0.00052330344,
        "meta_mean_motion_dot": 0.00014142,
        "meta_mean_motion_ddot": 0,
        "tle_line1": "1 58660U 23208A   25344.58317632  .00014142  00000+0  52330-3 0  9990",
        "tle_line2": "2 58660  97.4387  95.6245 0004040 262.8832  97.1948 15.27785326108491"
      },
      "geometry": {
        "type": "Point",
        "coordinates": [
          -73.78074887703985,
          53.87110940782673
        ]
      }
    },
    {
      "type": "Feature",
      "properties": {
        "norad_id": 58661,
        "name": "TIANMU-1 20",
        "group": "weather",
        "lat": -11.60362782152981,
        "lon": -85.18161131666298,
        "alt_km": 482.7621983676936,
        "timestamp": "2025-12-10T20:49:52.204893+00:00",
        "meta_object_name": "TIANMU-1 20",
        "meta_object_id": "2023-208B",
        "meta_epoch": "2025-12-10T13:42:44.938080",
        "meta_mean_motion": 15.28976136,
        "meta_eccentricity": 0.00062899,
        "meta_inclination": 97.4325,
        "meta_ra_of_asc_node": 96.0582,
        "meta_arg_of_pericenter": 275.1822,
        "meta_mean_anomaly": 84.87,
        "meta_ephemeris_type": 0,
        "meta_classification_type": "U",
        "meta_norad_cat_id": 58661,
        "meta_element_set_no": 999,
        "meta_rev_at_epoch": 10856,
        "meta_bstar": 0.00049246395,
        "meta_mean_motion_dot": 0.00013801,
        "meta_mean_motion_ddot": 0,
        "tle_line1": "1 58661U 23208B   25344.57135345  .00013801  00000+0  49246-3 0  9992",
        "tle_line2": "2 58661  97.4325  96.0582 0006289 275.1822  84.8700 15.28976136108565"
      },
      "geometry": {
        "type": "Point",
        "coordinates": [
          -85.18161131666298,
          -11.60362782152981
        ]
      }
    },
    {
      "type": "Feature",
      "properties": {
        "norad_id": 58662,
        "name": "TIANMU-1 21",
        "group": "weather",
        "lat": 0.44033741800619886,
        "lon": -81.68802088489322,
        "alt_km": 474.3431419532817,
        "timestamp": "2025-12-10T20:49:52.204909+00:00",
        "meta_object_name": "TIANMU-1 21",
        "meta_object_id": "2023-208C",
        "meta_epoch": "2025-12-10T13:46:37.360992",
        "meta_mean_motion": 15.31475186,
        "meta_eccentricity": 0.00058674,
        "meta_inclination": 97.4373,
        "meta_ra_of_asc_node": 97.9596,
        "meta_arg_of_pericenter": 269.2824,
        "meta_mean_anomaly": 90.7745,
        "meta_ephemeris_type": 0,
        "meta_classification_type": "U",
        "meta_norad_cat_id": 58662,
        "meta_element_set_no": 999,
        "meta_rev_at_epoch": 10866,
        "meta_bstar": 0.00053186943,
        "meta_mean_motion_dot": 0.00016113,
        "meta_mean_motion_ddot": 0,
        "tle_line1": "1 58662U 23208C   25344.57404353  .00016113  00000+0  53187-3 0  9999",
        "tle_line2": "2 58662  97.4373  97.9596 0005867 269.2824  90.7745 15.31475186108660"
      },
      "geometry": {
        "type": "Point",
        "coordinates": [
          -81.68802088489322,
          0.44033741800619886
        ]
      }
    },
    {
      "type": "Feature",
      "properties": {
        "norad_id": 58663,
        "name": "TIANMU-1 22",
        "group": "weather",
        "lat": 51.05981583505474,
        "lon": -74.72710226160093,
        "alt_km": 480.3157861060017,
        "timestamp": "2025-12-10T20:49:52.204925+00:00",
        "meta_object_name": "TIANMU-1 22",
        "meta_object_id": "2023-208D",
        "meta_epoch": "2025-12-10T13:58:58.094112",
        "meta_mean_motion": 15.27544598,
        "meta_eccentricity": 0.00027294,
        "meta_inclination": 97.4381,
        "meta_ra_of_asc_node": 95.684,
        "meta_arg_of_pericenter": 298.5008,
        "meta_mean_anomaly": 61.5956,
        "meta_ephemeris_type": 0,
        "meta_classification_type": "U",
        "meta_norad_cat_id": 58663,
        "meta_element_set_no": 999,
        "meta_rev_at_epoch": 10850,
        "meta_bstar": 0.0004947898,
        "meta_mean_motion_dot": 0.00013267,
        "meta_mean_motion_ddot": 0,
        "tle_line1": "1 58663U 23208D   25344.58261683  .00013267  00000+0  49479-3 0  9994",
        "tle_line2": "2 58663  97.4381  95.6840 0002729 298.5008  61.5956 15.27544598108502"
      },
      "geometry": {
        "type": "Point",
        "coordinates": [
          -74.72710226160093,
          51.05981583505474
        ]
      }
    },
    {
      "type": "Feature",
      "properties": {
        "norad_id": 58700,
        "name": "TIANMU-1 15",
        "group": "weather",
        "lat": -79.58527806753915,
        "lon": -148.15829609551733,
        "alt_km": 496.07503108963556,
        "timestamp": "2025-12-10T20:49:52.204941+00:00",
        "meta_object_name": "TIANMU-1 15",
        "meta_object_id": "2024-004A",
        "meta_epoch": "2025-12-10T14:53:33.406656",
        "meta_mean_motion": 15.2463417,
        "meta_eccentricity": 0.00052733,
        "meta_inclination": 97.4631,
        "meta_ra_of_asc_node": 166.098,
        "meta_arg_of_pericenter": 307.6589,
        "meta_mean_anomaly": 52.417,
        "meta_ephemeris_type": 0,
        "meta_classification_type": "U",
        "meta_norad_cat_id": 58700,
        "meta_element_set_no": 999,
        "meta_rev_at_epoch": 10702,
        "meta_bstar": 0.0004048606,
        "meta_mean_motion_dot": 9.929e-05,
        "meta_mean_motion_ddot": 0,
        "tle_line1": "1 58700U 24004A   25344.62052554  .00009929  00000+0  40486-3 0  9990",
        "tle_line2": "2 58700  97.4631 166.0980 0005273 307.6589  52.4170 15.24634170107029"
      },
      "geometry": {
        "type": "Point",
        "coordinates": [
          -148.15829609551733,
          -79.58527806753915
        ]
      }
    }
  ]
}